[
    {
        "Altitude(m)": 579235.5672955747,
        "Argument of Periapsis(deg)": -0.03013754771062987,
        "Eccentricity": 0.0,
        "Inclination(deg)": 97.0,
        "Latitude(deg)": -41.19629382297931,
        "Longitude(deg)": 160.7271914121857,
        "Mean Anomaly(deg)": 221.32929102558333,
        "RAAN(deg)": 90.0079294048247,
        "Satellite Name": "Starlink Shell 3 1786",
        "Satellite Number": 1786,
        "Semi-Major Axis(m)": 6938478.169268562,
        "Time(s)": 760
    },
    {
        "Altitude(m)": 579490.2999115187,
        "Argument of Periapsis(deg)": -0.030534094391032898,
        "Eccentricity": 0.0,
        "Inclination(deg)": 97.0,
        "Latitude(deg)": -41.81268049483922,
        "Longitude(deg)": 160.55051183761168,
        "Mean Anomaly(deg)": 221.9547672232884,
        "RAAN(deg)": 90.00803373909869,
        "Satellite Name": "Starlink Shell 3 1786",
        "Satellite Number": 1786,
        "Semi-Major Axis(m)": 6938478.169268562,
        "Time(s)": 770
    },
    {
        "Altitude(m)": 579744.8567310071,
        "Argument of Periapsis(deg)": -0.030930641071435925,
        "Eccentricity": 0.0,
        "Inclination(deg)": 97.0,
        "Latitude(deg)": -42.42881130016762,
        "Longitude(deg)": 160.37123015214186,
        "Mean Anomaly(deg)": 222.5802434209934,
        "RAAN(deg)": 90.0081380733727,
        "Satellite Name": "Starlink Shell 3 1786",
        "Satellite Number": 1786,
        "Semi-Major Axis(m)": 6938478.169268562,
        "Time(s)": 780
    },
    {
        "Altitude(m)": 579999.1381113707,
        "Argument of Periapsis(deg)": -0.031327187751838945,
        "Eccentricity": 0.0,
        "Inclination(deg)": 97.0,
        "Latitude(deg)": -43.04467953355499,
        "Longitude(deg)": 160.18923872119998,
        "Mean Anomaly(deg)": 223.20571961869845,
        "RAAN(deg)": 90.0082424076467,
        "Satellite Name": "Starlink Shell 3 1786",
        "Satellite Number": 1786,
        "Semi-Major Axis(m)": 6938478.169268562,
        "Time(s)": 790
    },
    {
        "Altitude(m)": 580253.0443706147,
        "Argument of Periapsis(deg)": -0.031723734432241975,
        "Eccentricity": 0.0,
        "Inclination(deg)": 97.0,
        "Latitude(deg)": -43.66027818925678,
        "Longitude(deg)": 160.00442392833384,
        "Mean Anomaly(deg)": 223.83119581640346,
        "RAAN(deg)": 90.0083467419207,
        "Satellite Name": "Starlink Shell 3 1786",
        "Satellite Number": 1786,
        "Semi-Major Axis(m)": 6938478.169268562,
        "Time(s)": 800
    },
    {
        "Altitude(m)": 580506.475832315,
        "Argument of Periapsis(deg)": -0.032120281112645,
        "Eccentricity": 0.0,
        "Inclination(deg)": 97.0,
        "Latitude(deg)": -44.275599938316915,
        "Longitude(deg)": 159.81666631791086,
        "Mean Anomaly(deg)": 224.45667201410856,
        "RAAN(deg)": 90.00845107619473,
        "Satellite Name": "Starlink Shell 3 1786",
        "Satellite Number": 1786,
        "Semi-Major Axis(m)": 6938478.169268562,
        "Time(s)": 810
    },
    {
        "Altitude(m)": 580759.3328703825,
        "Argument of Periapsis(deg)": -0.03251682779304802,
        "Eccentricity": 0.0,
        "Inclination(deg)": 97.0,
        "Latitude(deg)": -44.89063710384627,
        "Longitude(deg)": 159.62584070938172,
        "Mean Anomaly(deg)": 225.0821482118136,
        "RAAN(deg)": 90.00855541046873,
        "Satellite Name": "Starlink Shell 3 1786",
        "Satellite Number": 1786,
        "Semi-Major Axis(m)": 6938478.169268562,
        "Time(s)": 820
    },
    {
        "Altitude(m)": 581011.5159538065,
        "Argument of Periapsis(deg)": -0.032913374473451044,
        "Eccentricity": 0.0,
        "Inclination(deg)": 97.0,
        "Latitude(deg)": -45.50538163428451,
        "Longitude(deg)": 159.43181476761282,
        "Mean Anomaly(deg)": 225.70762440951864,
        "RAAN(deg)": 90.00865974474274,
        "Satellite Name": "Starlink Shell 3 1786",
        "Satellite Number": 1786,
        "Semi-Major Axis(m)": 6938478.169268562,
        "Time(s)": 830
    },
    {
        "Altitude(m)": 581262.9256912902,
        "Argument of Periapsis(deg)": -0.03330992115385407,
        "Eccentricity": 0.0,
        "Inclination(deg)": 97.0,
        "Latitude(deg)": -46.11982507445755,
        "Longitude(deg)": 159.23444905212548,
        "Mean Anomaly(deg)": 226.33310060722368,
        "RAAN(deg)": 90.00876407901674,
        "Satellite Name": "Starlink Shell 3 1786",
        "Satellite Number": 1786,
        "Semi-Major Axis(m)": 6938478.169268562,
        "Time(s)": 840
    },
    {
        "Altitude(m)": 581513.4628757711,
        "Argument of Periapsis(deg)": -0.0337064678342571,
        "Eccentricity": 0.0,
        "Inclination(deg)": 97.0,
        "Latitude(deg)": -46.73395853421933,
        "Longitude(deg)": 159.03359702915142,
        "Mean Anomaly(deg)": 226.9585768049287,
        "RAAN(deg)": 90.00886841329077,
        "Satellite Name": "Starlink Shell 3 1786",
        "Satellite Number": 1786,
        "Semi-Major Axis(m)": 6938478.169268562,
        "Time(s)": 850
    },
    {
        "Altitude(m)": 581763.0285288024,
        "Argument of Periapsis(deg)": -0.03410301451466012,
        "Eccentricity": 0.0,
        "Inclination(deg)": 97.0,
        "Latitude(deg)": -47.347772654439844,
        "Longitude(deg)": 158.82910336197196,
        "Mean Anomaly(deg)": 227.5840530026338,
        "RAAN(deg)": 90.00897274756477,
        "Satellite Name": "Starlink Shell 3 1786",
        "Satellite Number": 1786,
        "Semi-Major Axis(m)": 6938478.169268562,
        "Time(s)": 860
    },
    {
        "Altitude(m)": 582011.5239447857,
        "Argument of Periapsis(deg)": -0.034499561195063144,
        "Eccentricity": 0.0,
        "Inclination(deg)": 97.0,
        "Latitude(deg)": -47.96125757008495,
        "Longitude(deg)": 158.62080467800473,
        "Mean Anomaly(deg)": 228.20952920033886,
        "RAAN(deg)": 90.00907708183877,
        "Satellite Name": "Starlink Shell 3 1786",
        "Satellite Number": 1786,
        "Semi-Major Axis(m)": 6938478.169268562,
        "Time(s)": 870
    },
    {
        "Altitude(m)": 582258.8507350328,
        "Argument of Periapsis(deg)": -0.03489610787546617,
        "Eccentricity": 0.0,
        "Inclination(deg)": 97.0,
        "Latitude(deg)": -48.574402870090566,
        "Longitude(deg)": 158.40852776533518,
        "Mean Anomaly(deg)": 228.83500539804388,
        "RAAN(deg)": 90.0091814161128,
        "Satellite Name": "Starlink Shell 3 1786",
        "Satellite Number": 1786,
        "Semi-Major Axis(m)": 6938478.169268562,
        "Time(s)": 880
    },
    {
        "Altitude(m)": 582504.9108716237,
        "Argument of Periapsis(deg)": -0.0352926545558692,
        "Eccentricity": 0.0,
        "Inclination(deg)": 97.0,
        "Latitude(deg)": -49.18719755371345,
        "Longitude(deg)": 158.19208939622504,
        "Mean Anomaly(deg)": 229.46048159574892,
        "RAAN(deg)": 90.0092857503868,
        "Satellite Name": "Starlink Shell 3 1786",
        "Satellite Number": 1786,
        "Semi-Major Axis(m)": 6938478.169268562,
        "Time(s)": 890
    },
    {
        "Altitude(m)": 582749.6067310488,
        "Argument of Periapsis(deg)": -0.035689201236272214,
        "Eccentricity": 0.0,
        "Inclination(deg)": 97.0,
        "Latitude(deg)": -49.79962998299355,
        "Longitude(deg)": 157.9712960911813,
        "Mean Anomaly(deg)": 230.08595779345396,
        "RAAN(deg)": 90.00939008466081,
        "Satellite Name": "Starlink Shell 3 1786",
        "Satellite Number": 1786,
        "Semi-Major Axis(m)": 6938478.169268562,
        "Time(s)": 900
    },
    {
        "Altitude(m)": 582992.841137637,
        "Argument of Periapsis(deg)": -0.036085747916675244,
        "Eccentricity": 0.0,
        "Inclination(deg)": 97.0,
        "Latitude(deg)": -50.411687830921224,
        "Longitude(deg)": 157.74594230463748,
        "Mean Anomaly(deg)": 230.71143399115903,
        "RAAN(deg)": 90.0094944189348,
        "Satellite Name": "Starlink Shell 3 1786",
        "Satellite Number": 1786,
        "Semi-Major Axis(m)": 6938478.169268562,
        "Time(s)": 910
    },
    {
        "Altitude(m)": 583234.5174067122,
        "Argument of Periapsis(deg)": -0.03648229459707827,
        "Eccentricity": 0.0,
        "Inclination(deg)": 97.0,
        "Latitude(deg)": -51.02335802486096,
        "Longitude(deg)": 157.51581005120715,
        "Mean Anomaly(deg)": 231.33691018886407,
        "RAAN(deg)": 90.0095987532088,
        "Satellite Name": "Starlink Shell 3 1786",
        "Satellite Number": 1786,
        "Semi-Major Axis(m)": 6938478.169268562,
        "Time(s)": 920
    },
    {
        "Altitude(m)": 583474.5393874757,
        "Argument of Periapsis(deg)": -0.0368788412774813,
        "Eccentricity": 0.0,
        "Inclination(deg)": 97.0,
        "Latitude(deg)": -51.63462668471959,
        "Longitude(deg)": 157.28066845205,
        "Mean Anomaly(deg)": 231.9623863865691,
        "RAAN(deg)": 90.00970308748283,
        "Satellite Name": "Starlink Shell 3 1786",
        "Satellite Number": 1786,
        "Semi-Major Axis(m)": 6938478.169268562,
        "Time(s)": 930
    },
    {
        "Altitude(m)": 583712.8115056272,
        "Argument of Periapsis(deg)": -0.037275387957884314,
        "Eccentricity": 0.0,
        "Inclination(deg)": 97.0,
        "Latitude(deg)": -52.245479055285394,
        "Longitude(deg)": 157.0402716799816,
        "Mean Anomaly(deg)": 232.58786258427415,
        "RAAN(deg)": 90.00980742175683,
        "Satellite Name": "Starlink Shell 3 1786",
        "Satellite Number": 1786,
        "Semi-Major Axis(m)": 6938478.169268562,
        "Time(s)": 940
    }
]